Total gap duration: 3 days, 6:51:08.815779
STARLINK-3762
1 52374U 22045AV  24100.65469363  .00002887  00000+0  19937-3 0  9999
2 52374  53.2163  87.2097 0001773  87.3564 272.7631 15.08846025110398
Total gap duration: 3 days, 6:32:18.562042
STARLINK-3955
1 52561U 22051AE  24100.53279278  .00001716  00000+0  12586-3 0  9998
2 52561  53.2193  32.7588 0001471  86.8132 273.3028 15.08841566105823
Total gap duration: 3 days, 6:20:55.730541
STARLINK-31069
1 58607U 23200U   24100.72253261  .00001222  00000+0  10555-3 0  9993
2 58607  43.0044   8.0626 0001143 276.2691  83.8022 15.02532550 18456
Total gap duration: 3 days, 5:46:26.217284
STARLINK-3388
1 51131U 22005AD  24101.43578879  .00003559  00000+0  24167-3 0  9993
2 51131  53.2167 193.7021 0001215  78.6247 281.4881 15.08825994124430
Total gap duration: 3 days, 6:30:22.125900
STARLINK-6078
1 56106U 23046P   24101.41341815  .00001505  00000+0  12645-3 0  9999
2 56106  43.0072 353.1415 0001352 265.2515  94.8173 15.02542748 57568
Total gap duration: 3 days, 6:07:01.917923
STARLINK-4772
1 53932U 22119AY  24101.51675061 -.00000247  00000+0  26241-5 0  9999
2 53932  53.2151 193.4327 0002279  86.8943 273.2309 15.08842206 86217
Total gap duration: 3 days, 6:14:11.160899
STARLINK-31201
1 58870U 24019T   24101.42955732  .00002297  00000+0  97643-4 0  9991
2 58870  42.9985 226.2255 0001048 262.7215  97.3517 15.25904388 12155
Total gap duration: 3 days, 6:07:53.115515
STARLINK-2590
1 48397U 21038AW  24101.38762628 -.00001697  00000+0 -95092-4 0  9998
2 48397  53.0562 236.4140 0001952  93.4426 266.6787 15.06392173162647
Total gap duration: 3 days, 6:17:04.132966
STARLINK-1497
1 45781U 20038BD  24101.21115852  .00002482  00000+0  18539-3 0  9995
2 45781  53.0543  92.2067 0001413  81.1776 278.9373 15.06408040212408
Total gap duration: 3 days, 6:14:56.785434
STARLINK-1677
1 46576U 20070AW  24100.89556714  .00002747  00000+0  20329-3 0  9997
2 46576  53.0562  58.6225 0001549  94.8057 265.3108 15.06394910194390
Total gap duration: 3 days, 6:20:59.119217
STARLINK-5887
1 56349U 23058AJ  24100.51034826  .00000969  00000+0  80009-4 0  9995
2 56349  97.6562 102.3631 0000854 136.5077 223.6215 15.01255484 52740
Total gap duration: 3 days, 6:33:50.175305
STARLINK-5316
1 55305U 23010AN  24101.10739491  .00000017  00000+0  92306-5 0  9998
2 55305  69.9997 346.0217 0002954 269.9718  90.1102 14.98328213 68316
Total gap duration: 3 days, 6:25:30.700886
STARLINK-5220
1 54760U 22175C   24100.83917465  .00000127  00000+0  26082-4 0  9990
2 54760  53.2178 301.5723 0001311  90.8929 269.2214 15.08839141 74416
Total gap duration: 3 days, 6:25:58.131515
STARLINK-30756
1 58129U 23162M   24100.91318418 -.00000674  00000+0 -34817-4 0  9996
2 58129  43.0033 330.2191 0001626 268.8876  91.1780 15.02539632 27189
Total gap duration: 3 days, 6:04:24.612483
STARLINK-4274
1 52865U 22062AM  24101.48499499  .00001786  00000+0  13026-3 0  9998
2 52865  53.2152 278.4828 0001342  83.5507 276.5638 15.08841772101016
Total gap duration: 3 days, 6:28:26.715180
STARLINK-3672
1 51974U 22025U   24101.24930302  .00002106  00000+0  16024-3 0  9992
2 51974  53.0549 286.3073 0001523  83.9107 276.2056 15.06393571116738
Total gap duration: 3 days, 6:28:42.465326
STARLINK-31323
1 58882U 24020G   24101.04350716  .00013332  00000+0  49312-3 0  9996
2 58882  53.1553 327.6852 0000291  83.9401 276.1632 15.28018660 12114
Total gap duration: 3 days, 6:38:48.303843
STARLINK-31151
1 58742U 24005Q   24101.28982993  .00002562  00000+0  20460-3 0  9994
2 58742  43.0032  56.5857 0000798 262.4061  97.6691 15.02540472 15465
Total gap duration: 3 days, 6:08:58.641410
STARLINK-30978
1 58490U 23186T   24100.87654209  .00004724  00000+0  36448-3 0  9998
2 58490  43.0016 264.4437 0001838 267.5230  92.5402 15.02542838 20728
Total gap duration: 3 days, 6:49:42.274063
STARLINK-1445
1 45662U 20035F   24100.89140782  .00009842  00000+0  67818-3 0  9994
2 45662  53.0545 323.6431 0001603  81.5377 278.5793 15.06427293213400
Total gap duration: 3 days, 6:38:49.472575
STARLINK-1532
1 46068U 20055AT  24101.05561042  .00027301  00000+0  22917-3 0  9993
2 46068  53.0546 344.7483 0000772 129.6930 230.4155 15.69738105203581
Total gap duration: 3 days, 6:32:11.874291
STARLINK-6140
1 57111U 23090L   24101.40540692  .00000117  00000+0  23727-4 0  9990
2 57111  43.0016 108.9014 0001234 269.9577  90.1124 15.02525382 44232
Total gap duration: 3 days, 5:46:37.809861
STARLINK-31091
1 58629U 23203M   24100.90342517  .00007351  00000+0  29064-3 0  9997
2 58629  43.0007  48.9394 0000975 302.5488  57.5269 15.25904616 17803
Total gap duration: 3 days, 6:15:58.998576
STARLINK-31073
1 58773U 24011J   24100.84314674 -.00000201  00000+0  53036-5 0  9997
2 58773  53.1636 298.6147 0001462  84.7383 275.3774 15.04915770 14435
Total gap duration: 3 days, 6:32:29.024669
STARLINK-2182
1 47764U 21017AU  24101.21945423  .00000887  00000+0  78421-4 0  9995
2 47764  53.0534 122.1694 0001301  89.9048 270.2091 15.06399257171612
Total gap duration: 3 days, 6:03:55.645146
STARLINK-1974
1 47629U 21012K   24101.02549017  .00009329  00000+0  64410-3 0  9990
2 47629  53.0539 208.0422 0001117  97.8469 262.2647 15.06415320175847
Total gap duration: 3 days, 6:12:36.592029
STARLINK-30442
1 57868U 23144E   24101.11707658  .00001352  00000+0  11514-3 0  9996
2 57868  43.0029 123.5826 0000847 269.6505  90.4240 15.02539965 32473
Total gap duration: 3 days, 5:45:09.520173
STARLINK-6045
1 56462U 23064Q   24100.89549808  .00000353  00000+0  37367-4 0  9996
2 56462  70.0004  66.1867 0002902 269.3076  90.7750 14.98327446 51569
Total gap duration: 3 days, 6:22:15.470966
STARLINK-31008
1 58636U 23203U   24101.52874145 -.00000379  00000+0 -46359-5 0  9994
2 58636  43.0049  45.9057 0001937 269.4691  90.5938 15.25897881 18060
Total gap duration: 3 days, 6:08:17.991543
STARLINK-5982
1 56817U 23078BC  24100.85653210  .00003329  00000+0  28651-3 0  9995
2 56817  69.9979 306.3865 0003994 270.3079  89.7623 14.98352799 48006
Total gap duration: 3 days, 6:18:50.491469
STARLINK-30431
1 57852U 23141N   24101.21526873  .00003475  00000+0  18032-3 0  9995
2 57852  53.1092 289.5818 0001442  99.2549 260.8609 15.18742824 33389
Total gap duration: 3 days, 6:21:50.010752
STARLINK-5951
1 56918U 23083AU  24100.89238165  .00001053  00000+0  93047-4 0  9999
2 56918  43.0048 265.8013 0001590 267.7721  92.2939 15.02532805 46704
Total gap duration: 3 days, 6:24:41.950238
STARLINK-2127
1 47403U 21005BG  24100.79327179  .00000089  00000+0  24875-4 0  9994
2 47403  53.0542 289.0817 0001421  89.8148 270.3004 15.06396303178121
Total gap duration: 3 days, 6:17:36.281291
STARLINK-30524
1 57965U 23151B   24101.51588364  .00020690  00000+0  15418-2 0  9999
2 57965  42.9985 172.1852 0000670 299.6293  60.4482 15.02544764 30656
Total gap duration: 3 days, 5:49:27.042375
STARLINK-31487
1 59297U 24056B   24101.50001157 -.00030477  00000+0 -20667-3 0  9992
2 59297  43.0011 259.6654 0001918 249.8699 156.7319 15.73825370  3956
Total gap duration: 3 days, 6:31:01.537151
STARLINK-30135
1 56842U 23079V   24101.54859681  .00004255  00000+0  32990-3 0  9991
2 56842  43.0012 300.9710 0001327 270.2410  89.8280 15.02531546 47532
Total gap duration: 3 days, 6:20:47.382889
STARLINK-4527
1 53436U 22097BA  24101.42239916 -.00000118  00000+0  10654-4 0  9995
2 53436  53.2206 358.4523 0001539  97.0373 263.0794 15.08839464 92895
Total gap duration: 3 days, 6:11:54.853573
STARLINK-1964
1 47565U 21009T   24101.45858619  .00000443  00000+0  48647-4 0  9996
2 47565  53.0490 266.0954 0002187  90.4618 269.6622 15.06392329176308
Total gap duration: 3 days, 6:20:23.979315
STARLINK-6135
1 56539U 23065AN  24101.26582202 -.00002883  00000+0 -19825-3 0  9999
2 56539  43.0053  58.4015 0000715 259.2387 100.8375 15.02565550 50639
Total gap duration: 3 days, 6:01:24.076589
STARLINK-4586
1 53636U 22104BA  24101.42609625 -.00000065  00000+0  14034-4 0  9991
2 53636  53.2186 118.5726 0001621  95.4613 264.6564 15.08835781 89790
Total gap duration: 3 days, 6:13:36.504276
STARLINK-5249
1 54205U 22141BA  24100.13347858 -.00005219  00000+0 -31009-3 0  9996
2 54205  53.2161 254.1976 0000867 102.7356 257.3733 15.08838197 80395
Total gap duration: 3 days, 6:15:22.672885
STARLINK-1147
1 45095U 20006BD  24101.49413263  .00002153  00000+0  16340-3 0  9998
2 45095  53.0528 141.5183 0001313  81.7726 278.3412 15.06401610232132
Total gap duration: 3 days, 6:27:27.451570
STARLINK-30474
1 57897U 23146G   24101.52313876 -.00084850  00000+0 -63002-2 0  9994
2 57897  43.0019 147.0027 0001369 268.7627  91.3059 15.02786305 31944
Total gap duration: 3 days, 6:21:24.959714
STARLINK-6162
1 57131U 23090AG  24101.37802061  .00000838  00000+0  77110-4 0  9994
2 57131  43.0050  96.5341 0001040 263.0084  97.0640 15.02533887 44373
Total gap duration: 3 days, 5:57:32.611821
STARLINK-2583
1 48439U 21040M   24101.18490166  .00001501  00000+0  11962-3 0  9996
2 48439  53.0542  77.3246 0001481  94.1624 265.9534 15.06401870162621
Total gap duration: 3 days, 6:15:15.095012
STARLINK-6357
1 56783U 23078S   24100.92727416  .00000108  00000+0  16815-4 0  9997
2 56783  69.9977 286.3633 0003062 268.8863  91.1945 14.98329360 48502
Total gap duration: 3 days, 6:30:41.681581
STARLINK-5700
1 55607U 23020AQ  24100.65143715  .00001538  00000+0  12894-3 0  9992
2 55607  43.0046 190.2316 0001023 269.8569  90.2157 15.02531929 63915
Total gap duration: 3 days, 5:52:51.038615
STARLINK-2049
1 47356U 21005H   24100.93702362  .00001653  00000+0  12985-3 0  9994
2 47356  53.0533 288.4362 0001572  88.7825 271.3344 15.06401746179096
Total gap duration: 3 days, 6:19:58.967704
STARLINK-2620
1 48453U 21040AB  24100.67624170 -.00000614  00000+0 -22344-4 0  9992
2 48453  53.0546  79.6086 0001500  89.1018 271.0143 15.06401255161272
Total gap duration: 3 days, 6:04:05.419264
STARLINK-2373
1 47796U 21018K   24101.35723775  .00006241  00000+0  43746-3 0  9991
2 47796  53.0522 126.5530 0001838  88.4672 271.6528 15.06401770171279
